ONEWEB-0714             
1 54681U 22166AR  26119.12199799 -.00000007  00000+0 -49558-4 0  9990
2 54681  87.9220 253.7466 0002117  97.4691 262.6683 13.21824556165051
ONEWEB-0532             
1 55140U 23004A   26119.20639036  .00000101  00000+0  22661-3 0  9993
2 55140  87.9180  15.5981 0001557  89.7396 270.3914 13.17648425161138
ONEWEB-0533             
1 55141U 23004B   26119.20820785  .00000250  00000+0  65893-3 0  9996
2 55141  87.8997   0.4033 0001892  85.1393 274.9952 13.12442166161630
ONEWEB-0541             
1 55142U 23004C   26119.19978062  .00000586  00000+0  16169-2 0  9990
2 55142  87.8936  30.7941 0001683  76.1776 283.9540 13.11418829159527
ONEWEB-0543             
1 55143U 23004D   26119.14764698  .00000014  00000+0  19859-5 0  9992
2 55143  87.9189 345.2290 0001951  79.4635 280.6717 13.18680603163239
ONEWEB-0544             
1 55144U 23004E   26119.14094220  .00000062  00000+0  12519-3 0  9997
2 55144  87.9190 345.2297 0001676  75.5225 284.6093 13.18702686163232
ONEWEB-0560             
1 55145U 23004F   26119.13423801  .00000055  00000+0  10600-3 0  9999
2 55145  87.9191 345.2202 0001842  74.5267 285.6068 13.18728527163246
ONEWEB-0565             
1 55146U 23004G   26119.12753648  .00000067  00000+0  13768-3 0  9995
2 55146  87.9183 345.2539 0001352  74.6520 285.4762 13.18745223163230
ONEWEB-0567             
1 55147U 23004H   26119.12083438  .00000127  00000+0  28852-3 0  9996
2 55147  87.9193 345.2353 0001537  73.5038 286.6263 13.18767057163231
ONEWEB-0569             
1 55148U 23004J   26119.10211408  .00000242  00000+0  62710-3 0  9994
2 55148  87.8969 329.9951 0001809  55.9423 304.1878 13.13470768163737
ONEWEB-0570             
1 55149U 23004K   26119.18786691  .00000028  00000+0  38318-4 0  9994
2 55149  87.9192 345.2201 0001427  93.6511 266.4784 13.18549871163237
ONEWEB-0571             
1 55150U 23004L   26119.18115888  .00000077  00000+0  16321-3 0  9993
2 55150  87.9193 345.2202 0001251  40.3850 319.7375 13.18571872163246
ONEWEB-0572             
1 55151U 23004M   26119.23676420  .00000000  00000+0 -33853-4 0  9991
2 55151  87.9180  15.5934 0001613  76.3324 283.7987 13.17648657161038
ONEWEB-0573             
1 55152U 23004N   26119.17445013  .00000061  00000+0  12099-3 0  9991
2 55152  87.9189 345.2229 0000965  77.7571 282.3669 13.18593210163237
ONEWEB-0588             
1 55153U 23004P   26119.16774307  .00000022  00000+0  22399-4 0  9994
2 55153  87.9191 345.2252 0001315  93.6892 266.4390 13.18614719163232
ONEWEB-0598             
1 55154U 23004Q   26119.25403099 -.00000192  00000+0 -57708-3 0  9993
2 55154  87.8924  30.7991 0001714  54.2209 305.9078 13.11416717159485
ONEWEB-0599             
1 55155U 23004R   26119.19795539 -.00000027  00000+0 -10205-3 0  9998
2 55155  87.9180  15.5995 0001970  74.7187 285.4162 13.17649333161030
