[{"OBJECT_NAME":"ONEWEB-0714","OBJECT_ID":"2022-166AR","EPOCH":"2026-04-29T02:55:40.626336","MEAN_MOTION":13.21824556,"ECCENTRICITY":0.0002117,"INCLINATION":87.922,"RA_OF_ASC_NODE":253.7466,"ARG_OF_PERICENTER":97.4691,"MEAN_ANOMALY":262.6683,"EPHEMERIS_TYPE":0,"CLASSIFICATION_TYPE":"U","NORAD_CAT_ID":54681,"ELEMENT_SET_NO":999,"REV_AT_EPOCH":16505,"BSTAR":-4.9558e-05,"MEAN_MOTION_DOT":-7e-08,"MEAN_MOTION_DDOT":0.0},{"OBJECT_NAME":"ONEWEB-0532","OBJECT_ID":"2023-004A","EPOCH":"2026-04-29T04:57:12.127104","MEAN_MOTION":13.17648425,"ECCENTRICITY":0.0001557,"INCLINATION":87.918,"RA_OF_ASC_NODE":15.5981,"ARG_OF_PERICENTER":89.7396,"MEAN_ANOMALY":270.3914,"EPHEMERIS_TYPE":0,"CLASSIFICATION_TYPE":"U","NORAD_CAT_ID":55140,"ELEMENT_SET_NO":999,"REV_AT_EPOCH":16113,"BSTAR":0.00022661,"MEAN_MOTION_DOT":1.01e-06,"MEAN_MOTION_DDOT":0.0},{"OBJECT_NAME":"ONEWEB-0533","OBJECT_ID":"2023-004B","EPOCH":"2026-04-29T04:59:49.158240","MEAN_MOTION":13.12442166,"ECCENTRICITY":0.0001892,"INCLINATION":87.8997,"RA_OF_ASC_NODE":0.4033,"ARG_OF_PERICENTER":85.1393,"MEAN_ANOMALY":274.9952,"EPHEMERIS_TYPE":0,"CLASSIFICATION_TYPE":"U","NORAD_CAT_ID":55141,"ELEMENT_SET_NO":999,"REV_AT_EPOCH":16163,"BSTAR":0.0006589300000000001,"MEAN_MOTION_DOT":2.5e-06,"MEAN_MOTION_DDOT":0.0},{"OBJECT_NAME":"ONEWEB-0541","OBJECT_ID":"2023-004C","EPOCH":"2026-04-29T04:47:41.045568","MEAN_MOTION":13.11418829,"ECCENTRICITY":0.0001683,"INCLINATION":87.8936,"RA_OF_ASC_NODE":30.7941,"ARG_OF_PERICENTER":76.1776,"MEAN_ANOMALY":283.954,"EPHEMERIS_TYPE":0,"CLASSIFICATION_TYPE":"U","NORAD_CAT_ID":55142,"ELEMENT_SET_NO":999,"REV_AT_EPOCH":15952,"BSTAR":0.0016169,"MEAN_MOTION_DOT":5.86e-06,"MEAN_MOTION_DDOT":0.0},{"OBJECT_NAME":"ONEWEB-0543","OBJECT_ID":"2023-004D","EPOCH":"2026-04-29T03:32:36.699072","MEAN_MOTION":13.18680603,"ECCENTRICITY":0.0001951,"INCLINATION":87.9189,"RA_OF_ASC_NODE":345.229,"ARG_OF_PERICENTER":79.4635,"MEAN_ANOMALY":280.6717,"EPHEMERIS_TYPE":0,"CLASSIFICATION_TYPE":"U","NORAD_CAT_ID":55143,"ELEMENT_SET_NO":999,"REV_AT_EPOCH":16323,"BSTAR":1.9859e-06,"MEAN_MOTION_DOT":1.4e-07,"MEAN_MOTION_DDOT":0.0},{"OBJECT_NAME":"ONEWEB-0544","OBJECT_ID":"2023-004E","EPOCH":"2026-04-29T03:22:57.406080","MEAN_MOTION":13.18702686,"ECCENTRICITY":0.0001676,"INCLINATION":87.919,"RA_OF_ASC_NODE":345.2297,"ARG_OF_PERICENTER":75.5225,"MEAN_ANOMALY":284.6093,"EPHEMERIS_TYPE":0,"CLASSIFICATION_TYPE":"U","NORAD_CAT_ID":55144,"ELEMENT_SET_NO":999,"REV_AT_EPOCH":16323,"BSTAR":0.00012518999999999999,"MEAN_MOTION_DOT":6.2e-07,"MEAN_MOTION_DDOT":0.0},{"OBJECT_NAME":"ONEWEB-0560","OBJECT_ID":"2023-004F","EPOCH":"2026-04-29T03:13:18.164064","MEAN_MOTION":13.18728527,"ECCENTRICITY":0.0001842,"INCLINATION":87.9191,"RA_OF_ASC_NODE":345.2202,"ARG_OF_PERICENTER":74.5267,"MEAN_ANOMALY":285.6068,"EPHEMERIS_TYPE":0,"CLASSIFICATION_TYPE":"U","NORAD_CAT_ID":55145,"ELEMENT_SET_NO":999,"REV_AT_EPOCH":16324,"BSTAR":0.000106,"MEAN_MOTION_DOT":5.5e-07,"MEAN_MOTION_DDOT":0.0},{"OBJECT_NAME":"ONEWEB-0565","OBJECT_ID":"2023-004G","EPOCH":"2026-04-29T03:03:39.151872","MEAN_MOTION":13.18745223,"ECCENTRICITY":0.0001352,"INCLINATION":87.9183,"RA_OF_ASC_NODE":345.2539,"ARG_OF_PERICENTER":74.652,"MEAN_ANOMALY":285.4762,"EPHEMERIS_TYPE":0,"CLASSIFICATION_TYPE":"U","NORAD_CAT_ID":55146,"ELEMENT_SET_NO":999,"REV_AT_EPOCH":16323,"BSTAR":0.00013768,"MEAN_MOTION_DOT":6.7e-07,"MEAN_MOTION_DDOT":0.0},{"OBJECT_NAME":"ONEWEB-0567","OBJECT_ID":"2023-004H","EPOCH":"2026-04-29T02:54:00.090432","MEAN_MOTION":13.18767057,"ECCENTRICITY":0.0001537,"INCLINATION":87.9193,"RA_OF_ASC_NODE":345.2353,"ARG_OF_PERICENTER":73.5038,"MEAN_ANOMALY":286.6263,"EPHEMERIS_TYPE":0,"CLASSIFICATION_TYPE":"U","NORAD_CAT_ID":55147,"ELEMENT_SET_NO":999,"REV_AT_EPOCH":16323,"BSTAR":0.00028852,"MEAN_MOTION_DOT":1.27e-06,"MEAN_MOTION_DDOT":0.0},{"OBJECT_NAME":"ONEWEB-0569","OBJECT_ID":"2023-004J","EPOCH":"2026-04-29T02:27:02.656512","MEAN_MOTION":13.13470768,"ECCENTRICITY":0.0001809,"INCLINATION":87.8969,"RA_OF_ASC_NODE":329.9951,"ARG_OF_PERICENTER":55.9423,"MEAN_ANOMALY":304.1878,"EPHEMERIS_TYPE":0,"CLASSIFICATION_TYPE":"U","NORAD_CAT_ID":55148,"ELEMENT_SET_NO":999,"REV_AT_EPOCH":16373,"BSTAR":0.0006271,"MEAN_MOTION_DOT":2.42e-06,"MEAN_MOTION_DDOT":0.0},{"OBJECT_NAME":"ONEWEB-0570","OBJECT_ID":"2023-004K","EPOCH":"2026-04-29T04:30:31.701024","MEAN_MOTION":13.18549871,"ECCENTRICITY":0.0001427,"INCLINATION":87.9192,"RA_OF_ASC_NODE":345.2201,"ARG_OF_PERICENTER":93.6511,"MEAN_ANOMALY":266.4784,"EPHEMERIS_TYPE":0,"CLASSIFICATION_TYPE":"U","NORAD_CAT_ID":55149,"ELEMENT_SET_NO":999,"REV_AT_EPOCH":16323,"BSTAR":3.8318e-05,"MEAN_MOTION_DOT":2.8e-07,"MEAN_MOTION_DDOT":0.0},{"OBJECT_NAME":"ONEWEB-0571","OBJECT_ID":"2023-004L","EPOCH":"2026-04-29T04:20:52.127232","MEAN_MOTION":13.18571872,"ECCENTRICITY":0.0001251,"INCLINATION":87.9193,"RA_OF_ASC_NODE":345.2202,"ARG_OF_PERICENTER":40.385,"MEAN_ANOMALY":319.7375,"EPHEMERIS_TYPE":0,"CLASSIFICATION_TYPE":"U","NORAD_CAT_ID":55150,"ELEMENT_SET_NO":999,"REV_AT_EPOCH":16324,"BSTAR":0.00016321,"MEAN_MOTION_DOT":7.7e-07,"MEAN_MOTION_DDOT":0.0},{"OBJECT_NAME":"ONEWEB-0572","OBJECT_ID":"2023-004M","EPOCH":"2026-04-29T05:40:56.426880","MEAN_MOTION":13.17648657,"ECCENTRICITY":0.0001613,"INCLINATION":87.918,"RA_OF_ASC_NODE":15.5934,"ARG_OF_PERICENTER":76.3324,"MEAN_ANOMALY":283.7987,"EPHEMERIS_TYPE":0,"CLASSIFICATION_TYPE":"U","NORAD_CAT_ID":55151,"ELEMENT_SET_NO":999,"REV_AT_EPOCH":16103,"BSTAR":-3.3853e-05,"MEAN_MOTION_DOT":0.0,"MEAN_MOTION_DDOT":0.0},{"OBJECT_NAME":"ONEWEB-0573","OBJECT_ID":"2023-004N","EPOCH":"2026-04-29T04:11:12.491232","MEAN_MOTION":13.1859321,"ECCENTRICITY":9.65e-05,"INCLINATION":87.9189,"RA_OF_ASC_NODE":345.2229,"ARG_OF_PERICENTER":77.7571,"MEAN_ANOMALY":282.3669,"EPHEMERIS_TYPE":0,"CLASSIFICATION_TYPE":"U","NORAD_CAT_ID":55152,"ELEMENT_SET_NO":999,"REV_AT_EPOCH":16323,"BSTAR":0.00012099,"MEAN_MOTION_DOT":6.1e-07,"MEAN_MOTION_DDOT":0.0},{"OBJECT_NAME":"ONEWEB-0588","OBJECT_ID":"2023-004P","EPOCH":"2026-04-29T04:01:33.001248","MEAN_MOTION":13.18614719,"ECCENTRICITY":0.0001315,"INCLINATION":87.9191,"RA_OF_ASC_NODE":345.2252,"ARG_OF_PERICENTER":93.6892,"MEAN_ANOMALY":266.439,"EPHEMERIS_TYPE":0,"CLASSIFICATION_TYPE":"U","NORAD_CAT_ID":55153,"ELEMENT_SET_NO":999,"REV_AT_EPOCH":16323,"BSTAR":2.2399e-05,"MEAN_MOTION_DOT":2.2e-07,"MEAN_MOTION_DDOT":0.0},{"OBJECT_NAME":"ONEWEB-0598","OBJECT_ID":"2023-004Q","EPOCH":"2026-04-29T06:05:48.277536","MEAN_MOTION":13.11416717,"ECCENTRICITY":0.0001714,"INCLINATION":87.8924,"RA_OF_ASC_NODE":30.7991,"ARG_OF_PERICENTER":54.2209,"MEAN_ANOMALY":305.9078,"EPHEMERIS_TYPE":0,"CLASSIFICATION_TYPE":"U","NORAD_CAT_ID":55154,"ELEMENT_SET_NO":999,"REV_AT_EPOCH":15948,"BSTAR":-0.00057708,"MEAN_MOTION_DOT":-1.92e-06,"MEAN_MOTION_DDOT":0.0},{"OBJECT_NAME":"ONEWEB-0599","OBJECT_ID":"2023-004R","EPOCH":"2026-04-29T04:45:03.345696","MEAN_MOTION":13.17649333,"ECCENTRICITY":0.000197,"INCLINATION":87.918,"RA_OF_ASC_NODE":15.5995,"ARG_OF_PERICENTER":74.7187,"MEAN_ANOMALY":285.4162,"EPHEMERIS_TYPE":0,"CLASSIFICATION_TYPE":"U","NORAD_CAT_ID":55155,"ELEMENT_SET_NO":999,"REV_AT_EPOCH":16103,"BSTAR":-0.00010205,"MEAN_MOTION_DOT":-2.7e-07,"MEAN_MOTION_DDOT":0.0}]